{
  "type": "FeatureCollection",
  "features": [
    {
      "type": "Feature",
      "properties": {
        "norad_id": 24946,
        "name": "IRIDIUM 33",
        "group": "iridium-33-debris",
        "lat": -67.61225309111816,
        "lon": -101.55645759360758,
        "alt_km": 778.4198713893238,
        "timestamp": "2025-12-09T09:46:48.030264+00:00",
        "meta_object_name": "IRIDIUM 33",
        "meta_object_id": "1997-051C",
        "meta_epoch": "2025-12-08T19:14:25.821600",
        "meta_mean_motion": 14.35033415,
        "meta_eccentricity": 0.00065999,
        "meta_inclination": 86.387,
        "meta_ra_of_asc_node": 69.8745,
        "meta_arg_of_pericenter": 215.0125,
        "meta_mean_anomaly": 145.0639,
        "meta_ephemeris_type": 0,
        "meta_classification_type": "U",
        "meta_norad_cat_id": 24946,
        "meta_element_set_no": 999,
        "meta_rev_at_epoch": 47778,
        "meta_bstar": 0.00023498518,
        "meta_mean_motion_dot": 6.89e-06,
        "meta_mean_motion_ddot": 0,
        "tle_line1": "1 24946U 97051C   25342.80168775  .00000689  00000+0  23499-3 0  9997",
        "tle_line2": "2 24946  86.3870  69.8745 0006599 215.0125 145.0639 14.35033415477783"
      },
      "geometry": {
        "type": "Point",
        "coordinates": [
          -101.55645759360758,
          -67.61225309111816
        ]
      }
    },
    {
      "type": "Feature",
      "properties": {
        "norad_id": 33773,
        "name": "IRIDIUM 33 DEB",
        "group": "iridium-33-debris",
        "lat": 73.31912825566418,
        "lon": -130.1213465065629,
        "alt_km": 735.2916724636234,
        "timestamp": "2025-12-09T09:46:48.030293+00:00",
        "meta_object_name": "IRIDIUM 33 DEB",
        "meta_object_id": "1997-051L",
        "meta_epoch": "2025-12-09T04:17:49.896672",
        "meta_mean_motion": 14.43243898,
        "meta_eccentricity": 0.0012139,
        "meta_inclination": 86.4015,
        "meta_ra_of_asc_node": 62.0983,
        "meta_arg_of_pericenter": 156.9799,
        "meta_mean_anomaly": 203.1949,
        "meta_ephemeris_type": 0,
        "meta_classification_type": "U",
        "meta_norad_cat_id": 33773,
        "meta_element_set_no": 999,
        "meta_rev_at_epoch": 88296,
        "meta_bstar": 0.00046736,
        "meta_mean_motion_dot": 1.593e-05,
        "meta_mean_motion_ddot": 0,
        "tle_line1": "1 33773U 97051L   25343.17904973  .00001593  00000+0  46736-3 0  9998",
        "tle_line2": "2 33773  86.4015  62.0983 0012139 156.9799 203.1949 14.43243898882966"
      },
      "geometry": {
        "type": "Point",
        "coordinates": [
          -130.1213465065629,
          73.31912825566418
        ]
      }
    },
    {
      "type": "Feature",
      "properties": {
        "norad_id": 33775,
        "name": "IRIDIUM 33 DEB",
        "group": "iridium-33-debris",
        "lat": -31.45108133348424,
        "lon": -126.79497252624179,
        "alt_km": 752.9904746243164,
        "timestamp": "2025-12-09T09:46:48.030309+00:00",
        "meta_object_name": "IRIDIUM 33 DEB",
        "meta_object_id": "1997-051N",
        "meta_epoch": "2025-12-09T03:56:22.236864",
        "meta_mean_motion": 14.41455547,
        "meta_eccentricity": 0.0013884,
        "meta_inclination": 86.364,
        "meta_ra_of_asc_node": 51.08,
        "meta_arg_of_pericenter": 165.7314,
        "meta_mean_anomaly": 223.5474,
        "meta_ephemeris_type": 0,
        "meta_classification_type": "U",
        "meta_norad_cat_id": 33775,
        "meta_element_set_no": 999,
        "meta_rev_at_epoch": 88089,
        "meta_bstar": 0.0004954,
        "meta_mean_motion_dot": 1.628e-05,
        "meta_mean_motion_ddot": 0,
        "tle_line1": "1 33775U 97051N   25343.16414626  .00001628  00000+0  49540-3 0  9995",
        "tle_line2": "2 33775  86.3640  51.0800 0013884 165.7314 223.5474 14.41455547880899"
      },
      "geometry": {
        "type": "Point",
        "coordinates": [
          -126.79497252624179,
          -31.45108133348424
        ]
      }
    },
    {
      "type": "Feature",
      "properties": {
        "norad_id": 33776,
        "name": "IRIDIUM 33 DEB",
        "group": "iridium-33-debris",
        "lat": 60.18111301692129,
        "lon": -104.12442938830587,
        "alt_km": 757.2511255172694,
        "timestamp": "2025-12-09T09:46:48.030322+00:00",
        "meta_object_name": "IRIDIUM 33 DEB",
        "meta_object_id": "1997-051P",
        "meta_epoch": "2025-12-08T20:25:17.631264",
        "meta_mean_motion": 14.38225708,
        "meta_eccentricity": 0.00138791,
        "meta_inclination": 86.4038,
        "meta_ra_of_asc_node": 82.4088,
        "meta_arg_of_pericenter": 203.6045,
        "meta_mean_anomaly": 276.0774,
        "meta_ephemeris_type": 0,
        "meta_classification_type": "U",
        "meta_norad_cat_id": 33776,
        "meta_element_set_no": 999,
        "meta_rev_at_epoch": 88026,
        "meta_bstar": 0.00064814674,
        "meta_mean_motion_dot": 1.989e-05,
        "meta_mean_motion_ddot": 0,
        "tle_line1": "1 33776U 97051P   25342.85089851  .00001989  00000+0  64815-3 0  9991",
        "tle_line2": "2 33776  86.4038  82.4088 0013879 203.6045 276.0774 14.38225708880262"
      },
      "geometry": {
        "type": "Point",
        "coordinates": [
          -104.12442938830587,
          60.18111301692129
        ]
      }
    },
    {
      "type": "Feature",
      "properties": {
        "norad_id": 33777,
        "name": "IRIDIUM 33 DEB",
        "group": "iridium-33-debris",
        "lat": 59.19116807015785,
        "lon": 42.74973003380439,
        "alt_km": 705.1144172374798,
        "timestamp": "2025-12-09T09:46:48.030335+00:00",
        "meta_object_name": "IRIDIUM 33 DEB",
        "meta_object_id": "1997-051Q",
        "meta_epoch": "2025-12-09T04:33:29.869056",
        "meta_mean_motion": 14.55571675,
        "meta_eccentricity": 0.0005077,
        "meta_inclination": 86.3783,
        "meta_ra_of_asc_node": 36.7474,
        "meta_arg_of_pericenter": 265.7419,
        "meta_mean_anomaly": 94.3208,
        "meta_ephemeris_type": 0,
        "meta_classification_type": "U",
        "meta_norad_cat_id": 33777,
        "meta_element_set_no": 999,
        "meta_rev_at_epoch": 88482,
        "meta_bstar": 0.0010986,
        "meta_mean_motion_dot": 4.809e-05,
        "meta_mean_motion_ddot": 0,
        "tle_line1": "1 33777U 97051Q   25343.18992904  .00004809  00000+0  10986-2 0  9994",
        "tle_line2": "2 33777  86.3783  36.7474 0005077 265.7419  94.3208 14.55571675884820"
      },
      "geometry": {
        "type": "Point",
        "coordinates": [
          42.74973003380439,
          59.19116807015785
        ]
      }
    },
    {
      "type": "Feature",
      "properties": {
        "norad_id": 33850,
        "name": "IRIDIUM 33 DEB",
        "group": "iridium-33-debris",
        "lat": -4.2200262618115545,
        "lon": -148.11694512537514,
        "alt_km": 746.8124145676693,
        "timestamp": "2025-12-09T09:46:48.030348+00:00",
        "meta_object_name": "IRIDIUM 33 DEB",
        "meta_object_id": "1997-051T",
        "meta_epoch": "2025-12-09T04:12:04.721760",
        "meta_mean_motion": 14.42134483,
        "meta_eccentricity": 0.0011843,
        "meta_inclination": 86.342,
        "meta_ra_of_asc_node": 31.7125,
        "meta_arg_of_pericenter": 172.0555,
        "meta_mean_anomaly": 246.0053,
        "meta_ephemeris_type": 0,
        "meta_classification_type": "U",
        "meta_norad_cat_id": 33850,
        "meta_element_set_no": 999,
        "meta_rev_at_epoch": 88101,
        "meta_bstar": 0.00048336,
        "meta_mean_motion_dot": 1.61e-05,
        "meta_mean_motion_ddot": 0,
        "tle_line1": "1 33850U 97051T   25343.17505465  .00001610  00000+0  48336-3 0  9995",
        "tle_line2": "2 33850  86.3420  31.7125 0011843 172.0555 246.0053 14.42134483881017"
      },
      "geometry": {
        "type": "Point",
        "coordinates": [
          -148.11694512537514,
          -4.2200262618115545
        ]
      }
    },
    {
      "type": "Feature",
      "properties": {
        "norad_id": 33853,
        "name": "IRIDIUM 33 DEB",
        "group": "iridium-33-debris",
        "lat": 5.274765748908439,
        "lon": -8.35740176645381,
        "alt_km": 970.6471730325375,
        "timestamp": "2025-12-09T09:46:48.030360+00:00",
        "meta_object_name": "IRIDIUM 33 DEB",
        "meta_object_id": "1997-051W",
        "meta_epoch": "2025-12-09T01:26:49.532928",
        "meta_mean_motion": 13.990264,
        "meta_eccentricity": 0.0206959,
        "meta_inclination": 85.9998,
        "meta_ra_of_asc_node": 351.4246,
        "meta_arg_of_pericenter": 247.2093,
        "meta_mean_anomaly": 168.4771,
        "meta_ephemeris_type": 0,
        "meta_classification_type": "U",
        "meta_norad_cat_id": 33853,
        "meta_element_set_no": 999,
        "meta_rev_at_epoch": 85294,
        "meta_bstar": 0.0024496,
        "meta_mean_motion_dot": 4.27e-05,
        "meta_mean_motion_ddot": 0,
        "tle_line1": "1 33853U 97051W   25343.06029552  .00004270  00000+0  24496-2 0  9999",
        "tle_line2": "2 33853  85.9998 351.4246 0206959 247.2093 168.4771 13.99026400852941"
      },
      "geometry": {
        "type": "Point",
        "coordinates": [
          -8.35740176645381,
          5.274765748908439
        ]
      }
    }
  ]
}